{"fetched_at":"2026-07-05T17:37:00.474Z","source":"https://celestrak.org/NORAD/elements/gp.php?NAME=UMBRA&FORMAT=JSON","constellation":"umbra","records":[{"OBJECT_NAME":"UMBRA-07","OBJECT_ID":"2023-174AT","EPOCH":"2026-07-05T03:19:47.304480","CLASSIFICATION_TYPE":"U","MEAN_MOTION":15.0949392,"ECCENTRICITY":0.00034617,"INCLINATION":97.3781,"RA_OF_ASC_NODE":241.2238,"ARG_OF_PERICENTER":48.3702,"MEAN_ANOMALY":311.7824,"EPHEMERIS_TYPE":0,"NORAD_CAT_ID":58297,"ELEMENT_SET_NO":999,"REV_AT_EPOCH":14612,"BSTAR":0.0011446294,"MEAN_MOTION_DOT":0.00018315,"MEAN_MOTION_DDOT":0},{"OBJECT_NAME":"UMBRA-09","OBJECT_ID":"2024-149CB","EPOCH":"2026-07-05T04:35:25.620864","CLASSIFICATION_TYPE":"U","MEAN_MOTION":15.18640889,"ECCENTRICITY":0.00016255,"INCLINATION":97.6964,"RA_OF_ASC_NODE":273.7112,"ARG_OF_PERICENTER":225.9608,"MEAN_ANOMALY":134.1492,"EPHEMERIS_TYPE":0,"NORAD_CAT_ID":60541,"ELEMENT_SET_NO":999,"REV_AT_EPOCH":10345,"BSTAR":0.0014980184,"MEAN_MOTION_DOT":0.00031062,"MEAN_MOTION_DDOT":0},{"OBJECT_NAME":"UMBRA-10","OBJECT_ID":"2024-149CH","EPOCH":"2026-07-05T04:34:47.064864","CLASSIFICATION_TYPE":"U","MEAN_MOTION":15.1863405,"ECCENTRICITY":0.00008715,"INCLINATION":97.6973,"RA_OF_ASC_NODE":273.74,"ARG_OF_PERICENTER":183.0614,"MEAN_ANOMALY":177.0615,"EPHEMERIS_TYPE":0,"NORAD_CAT_ID":60547,"ELEMENT_SET_NO":999,"REV_AT_EPOCH":10346,"BSTAR":0.0014428614,"MEAN_MOTION_DOT":0.00029904,"MEAN_MOTION_DDOT":0},{"OBJECT_NAME":"UMBRA-11","OBJECT_ID":"2025-276CL","EPOCH":"2026-07-05T03:29:40.430976","CLASSIFICATION_TYPE":"U","MEAN_MOTION":15.27479921,"ECCENTRICITY":0.00017075,"INCLINATION":97.4187,"RA_OF_ASC_NODE":260.673,"ARG_OF_PERICENTER":221.7575,"MEAN_ANOMALY":138.3534,"EPHEMERIS_TYPE":0,"NORAD_CAT_ID":66748,"ELEMENT_SET_NO":999,"REV_AT_EPOCH":3323,"BSTAR":0.00137096,"MEAN_MOTION_DOT":0.00036933,"MEAN_MOTION_DDOT":0},{"OBJECT_NAME":"UMBRA-12","OBJECT_ID":"2026-004J","EPOCH":"2026-07-04T17:01:10.768224","CLASSIFICATION_TYPE":"U","MEAN_MOTION":14.89474586,"ECCENTRICITY":0.00078276,"INCLINATION":97.8019,"RA_OF_ASC_NODE":184.2372,"ARG_OF_PERICENTER":79.7163,"MEAN_ANOMALY":280.4937,"EPHEMERIS_TYPE":0,"NORAD_CAT_ID":67371,"ELEMENT_SET_NO":999,"REV_AT_EPOCH":2591,"BSTAR":0.00088520662,"MEAN_MOTION_DOT":0.00008381,"MEAN_MOTION_DDOT":0}]}
